[{"OBJECT_NAME":"O3B FM20","OBJECT_ID":"2019-020A","EPOCH":"2026-03-14T20:43:37.600896","MEAN_MOTION":5.00115512,"ECCENTRICITY":0.00027592,"INCLINATION":0.0522,"RA_OF_ASC_NODE":0.0965,"ARG_OF_PERICENTER":341.6917,"MEAN_ANOMALY":18.1985,"EPHEMERIS_TYPE":0,"CLASSIFICATION_TYPE":"U","NORAD_CAT_ID":44112,"ELEMENT_SET_NO":999,"REV_AT_EPOCH":12685,"BSTAR":0,"MEAN_MOTION_DOT":-2.0e-7,"MEAN_MOTION_DDOT":0},{"OBJECT_NAME":"O3B FM19","OBJECT_ID":"2019-020B","EPOCH":"2026-03-15T02:10:30.980640","MEAN_MOTION":5.00115992,"ECCENTRICITY":0.00042132,"INCLINATION":0.0584,"RA_OF_ASC_NODE":353.1915,"ARG_OF_PERICENTER":354.17,"MEAN_ANOMALY":12.6246,"EPHEMERIS_TYPE":0,"CLASSIFICATION_TYPE":"U","NORAD_CAT_ID":44113,"ELEMENT_SET_NO":999,"REV_AT_EPOCH":12673,"BSTAR":0,"MEAN_MOTION_DOT":-2.0e-7,"MEAN_MOTION_DDOT":0},{"OBJECT_NAME":"O3B FM17","OBJECT_ID":"2019-020C","EPOCH":"2026-03-13T18:30:54.460224","MEAN_MOTION":5.00115442,"ECCENTRICITY":0.00026646,"INCLINATION":0.0382,"RA_OF_ASC_NODE":342.2165,"ARG_OF_PERICENTER":5.4523,"MEAN_ANOMALY":12.3211,"EPHEMERIS_TYPE":0,"CLASSIFICATION_TYPE":"U","NORAD_CAT_ID":44114,"ELEMENT_SET_NO":999,"REV_AT_EPOCH":12675,"BSTAR":0,"MEAN_MOTION_DOT":-2.2e-7,"MEAN_MOTION_DDOT":0},{"OBJECT_NAME":"O3B FM18","OBJECT_ID":"2019-020D","EPOCH":"2026-03-15T02:48:28.378368","MEAN_MOTION":5.00115245,"ECCENTRICITY":0.00027294,"INCLINATION":0.0525,"RA_OF_ASC_NODE":0.3281,"ARG_OF_PERICENTER":354.2505,"MEAN_ANOMALY":5.4151,"EPHEMERIS_TYPE":0,"CLASSIFICATION_TYPE":"U","NORAD_CAT_ID":44115,"ELEMENT_SET_NO":999,"REV_AT_EPOCH":12694,"BSTAR":0,"MEAN_MOTION_DOT":-1.9e-7,"MEAN_MOTION_DDOT":0},{"OBJECT_NAME":"SALSAT","OBJECT_ID":"2020-068K","EPOCH":"2026-03-15T05:43:28.441632","MEAN_MOTION":15.28307413,"ECCENTRICITY":0.00080338,"INCLINATION":97.8857,"RA_OF_ASC_NODE":71.6917,"ARG_OF_PERICENTER":272.6742,"MEAN_ANOMALY":87.3577,"EPHEMERIS_TYPE":0,"CLASSIFICATION_TYPE":"U","NORAD_CAT_ID":46495,"ELEMENT_SET_NO":999,"REV_AT_EPOCH":30100,"BSTAR":0.00037867351,"MEAN_MOTION_DOT":0.00010372,"MEAN_MOTION_DDOT":0},{"OBJECT_NAME":"O3B MPOWER F1","OBJECT_ID":"2022-174A","EPOCH":"2026-03-15T06:05:33.904896","MEAN_MOTION":5.00114895,"ECCENTRICITY":0.00054559,"INCLINATION":0.0635,"RA_OF_ASC_NODE":350.3812,"ARG_OF_PERICENTER":19.5992,"MEAN_ANOMALY":96.3391,"EPHEMERIS_TYPE":0,"CLASSIFICATION_TYPE":"U","NORAD_CAT_ID":54755,"ELEMENT_SET_NO":999,"REV_AT_EPOCH":6066,"BSTAR":0,"MEAN_MOTION_DOT":-1.9e-7,"MEAN_MOTION_DDOT":0},{"OBJECT_NAME":"O3B MPOWER F2","OBJECT_ID":"2022-174B","EPOCH":"2026-03-03T12:48:44.541504","MEAN_MOTION":5.00690325,"ECCENTRICITY":0.00461256,"INCLINATION":0.1272,"RA_OF_ASC_NODE":326.2177,"ARG_OF_PERICENTER":76.0907,"MEAN_ANOMALY":318.0389,"EPHEMERIS_TYPE":0,"CLASSIFICATION_TYPE":"U","NORAD_CAT_ID":54756,"ELEMENT_SET_NO":999,"REV_AT_EPOCH":6015,"BSTAR":0,"MEAN_MOTION_DOT":-2.8e-7,"MEAN_MOTION_DDOT":0},{"OBJECT_NAME":"O3B MPOWER F4","OBJECT_ID":"2023-059A","EPOCH":"2026-02-17T05:46:40.580544","MEAN_MOTION":5.00119607,"ECCENTRICITY":0.00064606,"INCLINATION":0.0593,"RA_OF_ASC_NODE":7.9241,"ARG_OF_PERICENTER":334.3658,"MEAN_ANOMALY":17.6828,"EPHEMERIS_TYPE":0,"CLASSIFICATION_TYPE":"U","NORAD_CAT_ID":56367,"ELEMENT_SET_NO":999,"REV_AT_EPOCH":5260,"BSTAR":0,"MEAN_MOTION_DOT":-1.5e-7,"MEAN_MOTION_DDOT":0}]
